OBJECT_NAME,OBJECT_ID,EPOCH,MEAN_MOTION,ECCENTRICITY,INCLINATION,RA_OF_ASC_NODE,ARG_OF_PERICENTER,MEAN_ANOMALY,EPHEMERIS_TYPE,CLASSIFICATION_TYPE,NORAD_CAT_ID,ELEMENT_SET_NO,REV_AT_EPOCH,BSTAR,MEAN_MOTION_DOT,MEAN_MOTION_DDOT
OSCAR 7 (AO-7),1974-089B,2026-06-09T00:03:53.845056,12.53697945,.0012492,101.9901,173.1638,145.3825,271.9948,0,U,7530,999,35949,.70926E-4,-.35E-6,0
PHASE 3B (AO-10),1983-058B,2026-06-07T04:08:14.383680,2.05872980,.60142661,25.9048,221.2242,112.9115,319.2048,0,U,14129,999,29528,0,-.194E-5,0
UOSAT 2 (UO-11),1984-021B,2026-06-09T04:00:19.780704,14.90763358,.0006887,97.8054,125.8314,199.5378,160.5577,0,U,14781,999,25593,.11978E-3,.1121E-4,0
LUSAT (LO-19),1990-005G,2026-06-09T02:07:51.105216,14.34120668,.001071,98.8852,181.6710,226.2681,133.7616,0,U,20442,999,90123,.52389E-4,.1E-5,0
EYESAT A (AO-27),1993-061C,2026-06-09T02:21:47.955744,14.30940069,.0009411,98.6881,227.5146,120.7072,239.5039,0,U,22825,999,70584,.45187E-4,.74E-6,0
ITAMSAT (IO-26),1993-061D,2026-06-08T22:34:18.348096,14.31366725,.0010049,98.6829,227.2733,106.4244,253.8044,0,U,22826,999,70613,.51394E-4,.92E-6,0
RADIO ROSTO (RS15),1994-085A,2026-06-09T03:12:54.448128,11.27583633,.0155702,64.8186,316.2407,5.3648,354.8901,0,U,23439,999,29499,.20284E-3,-.35E-6,0
JAS-2 (FO-29),1996-046B,2026-06-09T02:30:14.710752,13.53273744,.0350777,98.5248,10.0837,117.3510,246.3789,0,U,24278,999,47207,.23943E-4,-.9E-7,0
TECHSAT 1B (GO-32),1998-043D,2026-06-08T21:59:19.516704,14.24426823,.0000582,99.0065,152.4663,185.4157,174.7015,0,U,25397,999,45015,.48402E-4,.65E-6,0
ISS (ZARYA),1998-067A,2026-06-09T04:35:05.112096,15.49678250,.000689,51.6332,339.6717,149.5560,210.5830,0,U,25544,999,57051,.12924E-3,.6847E-4,0
PCSAT (NO-44),2001-043C,2026-06-08T23:41:51.105984,14.31953167,.0006111,67.0512,265.4797,264.3039,95.7366,0,U,26931,999,28927,.65089E-4,.92E-6,0
SAUDISAT 1C (SO-50),2002-058C,2026-06-09T04:45:27.885024,14.83029182,.0075439,64.5504,153.7028,263.9457,95.3049,0,U,27607,999,26327,.12675E-3,.928E-5,0
CUTE-1 (CO-55),2003-031E,2026-06-08T21:19:17.031648,14.24330680,.0008985,98.6735,168.5516,202.7480,157.3302,0,U,27844,999,19049,.1425E-3,.286E-5,0
CUBESAT XI-IV (CO-57),2003-031J,2026-06-09T00:19:05.277792,14.23616414,.0008561,98.6766,168.3941,222.5153,137.5363,0,U,27848,999,19021,.11652E-3,.222E-5,0
MOZHAETS 4 (RS22),2003-042A,2026-06-09T04:53:55.614624,14.73452037,.0010199,98.3474,344.3377,298.5540,149.9312,0,U,27939,999,21437,.81624E-4,.476E-5,0
CUBESAT XI-V,2005-043F,2026-06-07T22:59:29.763168,14.72607812,.00130883,98.2976,314.3867,231.5140,128.4894,0,U,28895,999,10039,.26180301E-3,.1615E-4,0
CUTE-1.7+APD II (CO-65),2008-021C,2026-06-09T05:27:28.979136,15.09376314,.0010342,97.8272,141.4808,62.0877,298.1398,0,U,32785,999,98399,.32464E-3,.5125E-4,0
SEEDS II (CO-66),2008-021J,2026-06-08T23:23:03.554016,15.32470622,.0002329,97.7521,157.4812,29.1671,330.9700,0,U,32791,999,98603,.55427E-3,.17316E-3,0
YUBILEINY (RS30),2008-025A,2026-06-09T05:04:43.439232,12.43178980,.0019206,82.5048,0.4023,331.8789,28.1252,0,U,32953,999,81870,.24475E-3,.44E-6,0
KKS-1 (KISEKI),2009-002H,2026-06-09T03:51:16.436160,14.83103187,.0007012,98.1193,82.4758,326.0486,34.0277,0,U,33499,999,93500,.16104E-3,.1256E-4,0
SWISSCUBE,2009-051B,2026-06-08T00:00:58.440960,14.62465103,.00054748,98.4042,66.7288,236.3791,123.6888,0,U,35932,999,88781,.23775073E-3,.1155E-4,0
BEESAT-1,2009-051C,2026-06-09T04:03:26.129088,14.61707455,.000391,98.3972,67.5698,248.9376,111.1406,0,U,35933,999,88801,.15973E-3,.747E-5,0
ITUPSAT1,2009-051E,2026-06-07T23:43:00.084288,14.60427678,.00060745,98.4056,65.5723,268.4530,91.5974,0,U,35935,999,88739,.1903704E-3,.873E-5,0
XIWANG-1 (HOPE-1),2009-072B,2026-06-09T04:30:41.056416,13.16438193,.0006806,100.4025,114.1480,252.0123,108.0249,0,U,36122,999,79195,-.61562E-3,-.28E-5,0
O/OREOS (USA 219),2010-062C,2026-06-09T02:13:32.552832,14.93709289,.0012381,71.9703,98.6734,80.7917,279.4653,0,U,37224,999,11543,.20169E-3,.2075E-4,0
JUGNU,2011-058B,2026-06-08T21:25:31.427040,14.13774614,.0018531,19.9622,358.8183,344.9101,52.3986,0,U,37839,999,75785,.79653E-4,.42E-5,0
SRMSAT,2011-058D,2026-06-09T03:43:58.154880,14.11573862,.0011941,19.9710,108.0810,115.7185,272.7432,0,U,37841,999,75668,.51544E-4,.36E-5,0
STRAND-1,2013-009E,2026-06-08T18:30:14.710176,14.37158481,.0007427,98.3921,340.2126,254.1198,105.9170,0,U,39090,999,69585,.11756E-3,.307E-5,0
ZACUBE-1 (TSHEPISOSAT),2013-066B,2026-06-09T03:24:19.722816,15.01137906,.0040054,97.8092,122.4351,275.9917,83.6743,0,U,39417,999,67952,.23503E-3,.2997E-4,0
GOMX-1,2013-066Q,2026-06-09T03:37:13.530720,14.69429927,.0130109,97.6492,1.1205,103.0484,258.5284,0,U,39430,999,66873,.26975E-3,.1768E-4,0
